{"type":"FeatureCollection","features":[{"type":"Feature","properties":{"name":"Aldo Bonzi"},"geometry":{"type":"Point","coordinates":[-58.5191686234805,-34.7069837345392]}},{"type":"Feature","properties":{"name":"Ciudad Evita"},"geometry":{"type":"Point","coordinates":[-58.5349456166451,-34.7157731493272]}},{"type":"Feature","properties":{"name":"González Catán"},"geometry":{"type":"Point","coordinates":[-58.6440393936429,-34.773025312187]}},{"type":"Feature","properties":{"name":"Gregorio de Laferrere"},"geometry":{"type":"Point","coordinates":[-58.5892567981998,-34.7469935775157]}},{"type":"Feature","properties":{"name":"Isidro Casanova"},"geometry":{"type":"Point","coordinates":[-58.5858084188647,-34.7109702658698]}},{"type":"Feature","properties":{"name":"La Tablada"},"geometry":{"type":"Point","coordinates":[-58.5256461385691,-34.686462325254]}},{"type":"Feature","properties":{"name":"Lomas del Mirador"},"geometry":{"type":"Point","coordinates":[-58.5317739283029,-34.6652765210767]}},{"type":"Feature","properties":{"name":"Rafael Castillo"},"geometry":{"type":"Point","coordinates":[-58.6256335195148,-34.7090985315633]}},{"type":"Feature","properties":{"name":"Ramos Mejía"},"geometry":{"type":"Point","coordinates":[-58.5596657431949,-34.6454993387505]}},{"type":"Feature","properties":{"name":"San Justo"},"geometry":{"type":"Point","coordinates":[-58.563738604389,-34.6811417496029]}},{"type":"Feature","properties":{"name":"Tapiales"},"geometry":{"type":"Point","coordinates":[-58.5078575449595,-34.6990522094808]}},{"type":"Feature","properties":{"name":"20 de Junio"},"geometry":{"type":"Point","coordinates":[-58.7295673036974,-34.7761539422411]}},{"type":"Feature","properties":{"name":"Villa Eduardo Madero"},"geometry":{"type":"Point","coordinates":[-58.4931738114066,-34.6881322748108]}},{"type":"Feature","properties":{"name":"Villa Luzuriaga"},"geometry":{"type":"Point","coordinates":[-58.582392278561,-34.6635308896038]}},{"type":"Feature","properties":{"name":"Virrey del Pino"},"geometry":{"type":"Point","coordinates":[-58.6469682245822,-34.837653604909]}}]}