{"type":"FeatureCollection","features":[{"type":"Feature","properties":{},"geometry":{"type":"LineString","coordinates":[[-58.4672,-34.77317],[-58.46819,-34.77284]]}},{"type":"Feature","properties":{},"geometry":{"type":"LineString","coordinates":[[-58.51547,-34.7218],[-58.51502,-34.72223],[-58.51477,-34.72246],[-58.51419,-34.72296],[-58.51401,-34.72312],[-58.51375,-34.72335],[-58.51357,-34.7235]]}},{"type":"Feature","properties":{},"geometry":{"type":"LineString","coordinates":[[-58.51742,-34.71839],[-58.51965,-34.7166],[-58.51997,-34.71635],[-58.5222,-34.71459]]}},{"type":"Feature","properties":{},"geometry":{"type":"LineString","coordinates":[[-58.50572,-34.72803],[-58.50635,-34.72742],[-58.50649,-34.72729]]}},{"type":"Feature","properties":{},"geometry":{"type":"LineString","coordinates":[[-58.62788,-34.64715],[-58.62835,-34.64779],[-58.6284,-34.64788],[-58.62844,-34.64796],[-58.6285,-34.64811],[-58.62856,-34.64828],[-58.62864,-34.64853],[-58.62869,-34.64872],[-58.62872,-34.64884],[-58.62877,-34.64908],[-58.6288,-34.6492],[-58.62888,-34.64949],[-58.6291,-34.65026],[-58.62924,-34.65073],[-58.62941,-34.65133],[-58.62954,-34.65184]]}},{"type":"Feature","properties":{},"geometry":{"type":"LineString","coordinates":[[-58.46703,-34.77333],[-58.46578,-34.77379],[-58.46434,-34.77431],[-58.46384,-34.77452],[-58.46341,-34.77471],[-58.46299,-34.77492],[-58.46261,-34.77511],[-58.46224,-34.77532],[-58.46195,-34.77551],[-58.46157,-34.77577],[-58.4613,-34.77599]]}},{"type":"Feature","properties":{},"geometry":{"type":"LineString","coordinates":[[-58.46699,-34.77324],[-58.4672,-34.77317]]}},{"type":"Feature","properties":{},"geometry":{"type":"LineString","coordinates":[[-58.46724,-34.77325],[-58.46703,-34.77333]]}},{"type":"Feature","properties":{},"geometry":{"type":"LineString","coordinates":[[-58.62449,-34.64106],[-58.62455,-34.64121],[-58.62479,-34.64185],[-58.62493,-34.64215],[-58.62523,-34.64293],[-58.62539,-34.64329],[-58.62543,-34.64339],[-58.6255,-34.64353],[-58.62559,-34.64367],[-58.62608,-34.64447]]}},{"type":"Feature","properties":{},"geometry":{"type":"LineString","coordinates":[[-58.5412,-34.70055],[-58.54103,-34.70063],[-58.54095,-34.70066],[-58.54079,-34.70073],[-58.54066,-34.70079],[-58.54057,-34.70083],[-58.54044,-34.7009],[-58.54028,-34.70099],[-58.5401,-34.70112],[-58.53912,-34.70186],[-58.53847,-34.70235],[-58.53835,-34.70244],[-58.53675,-34.70365],[-58.53432,-34.70549],[-58.53383,-34.70585],[-58.53361,-34.70602],[-58.53329,-34.70627],[-58.53318,-34.70634],[-58.53301,-34.70648]]}},{"type":"Feature","properties":{},"geometry":{"type":"LineString","coordinates":[[-58.54186,-34.69952],[-58.54195,-34.69948],[-58.54204,-34.69942],[-58.54215,-34.69935],[-58.5423,-34.69922],[-58.54235,-34.69919]]}},{"type":"Feature","properties":{},"geometry":{"type":"LineString","coordinates":[[-58.63365,-34.62067],[-58.63322,-34.62017],[-58.63261,-34.61939],[-58.63254,-34.6193]]}},{"type":"Feature","properties":{},"geometry":{"type":"LineString","coordinates":[[-58.60491,-34.66246],[-58.60464,-34.66267],[-58.60386,-34.66332],[-58.60328,-34.6638],[-58.60322,-34.66384],[-58.60312,-34.66393],[-58.60247,-34.66446],[-58.60183,-34.66498],[-58.60125,-34.66545],[-58.60116,-34.66553],[-58.6008,-34.66582],[-58.60049,-34.66608]]}},{"type":"Feature","properties":{},"geometry":{"type":"LineString","coordinates":[[-58.62897,-34.63334],[-58.62942,-34.63228]]}},{"type":"Feature","properties":{},"geometry":{"type":"LineString","coordinates":[[-58.62553,-34.63961],[-58.62614,-34.63858],[-58.62622,-34.63845],[-58.62648,-34.63801],[-58.62655,-34.63788],[-58.62661,-34.63779],[-58.62695,-34.63721],[-58.62725,-34.63672],[-58.62735,-34.63656],[-58.62778,-34.63588],[-58.62779,-34.63586]]}},{"type":"Feature","properties":{},"geometry":{"type":"LineString","coordinates":[[-58.57234,-34.68231],[-58.57261,-34.68225],[-58.57277,-34.68222]]}},{"type":"Feature","properties":{},"geometry":{"type":"LineString","coordinates":[[-58.57114,-34.6826],[-58.57183,-34.68246]]}},{"type":"Feature","properties":{},"geometry":{"type":"LineString","coordinates":[[-58.57486,-34.68174],[-58.57549,-34.6816],[-58.57613,-34.68145],[-58.57754,-34.68112]]}},{"type":"Feature","properties":{},"geometry":{"type":"LineString","coordinates":[[-58.58855,-34.67616],[-58.58953,-34.67534],[-58.59067,-34.6744]]}},{"type":"Feature","properties":{},"geometry":{"type":"LineString","coordinates":[[-58.63003,-34.66036],[-58.62951,-34.66049],[-58.62928,-34.66054],[-58.62918,-34.66055],[-58.62902,-34.66056],[-58.62882,-34.66056],[-58.62789,-34.66057],[-58.62775,-34.66057]]}},{"type":"Feature","properties":{},"geometry":{"type":"LineString","coordinates":[[-58.49778,-34.73833],[-58.49806,-34.73792],[-58.49872,-34.73704],[-58.49884,-34.73688],[-58.49942,-34.73606],[-58.49998,-34.73532],[-58.50054,-34.73456],[-58.50111,-34.73378],[-58.5016,-34.73312],[-58.50189,-34.73275],[-58.50243,-34.73202],[-58.50274,-34.73159],[-58.50381,-34.73015],[-58.50418,-34.72968],[-58.50449,-34.72931],[-58.50484,-34.72892],[-58.50502,-34.72873],[-58.50523,-34.72851],[-58.50572,-34.72803]]}},{"type":"Feature","properties":{},"geometry":{"type":"LineString","coordinates":[[-58.49744,-34.73879],[-58.49778,-34.73833]]}},{"type":"Feature","properties":{},"geometry":{"type":"LineString","coordinates":[[-58.52227,-34.71465],[-58.52005,-34.71641],[-58.51975,-34.71666]]}},{"type":"Feature","properties":{},"geometry":{"type":"LineString","coordinates":[[-58.5222,-34.71459],[-58.52259,-34.71423]]}},{"type":"Feature","properties":{},"geometry":{"type":"LineString","coordinates":[[-58.56341,-34.68445],[-58.56269,-34.68463],[-58.56233,-34.68472],[-58.56205,-34.68481],[-58.56177,-34.68491],[-58.56157,-34.68501],[-58.56139,-34.6851],[-58.56114,-34.68524]]}},{"type":"Feature","properties":{},"geometry":{"type":"LineString","coordinates":[[-58.55822,-34.68731],[-58.55741,-34.68791],[-58.55607,-34.68895]]}},{"type":"Feature","properties":{},"geometry":{"type":"LineString","coordinates":[[-58.56437,-34.68414],[-58.56646,-34.68365],[-58.56665,-34.6836]]}},{"type":"Feature","properties":{},"geometry":{"type":"LineString","coordinates":[[-58.56106,-34.68519],[-58.56132,-34.68504],[-58.56151,-34.68494],[-58.56173,-34.68484],[-58.56198,-34.68474],[-58.56224,-34.68465],[-58.56268,-34.68454],[-58.56328,-34.6844],[-58.56339,-34.68437]]}},{"type":"Feature","properties":{},"geometry":{"type":"LineString","coordinates":[[-58.58426,-34.67969],[-58.58388,-34.67979],[-58.5838,-34.67981]]}},{"type":"Feature","properties":{},"geometry":{"type":"LineString","coordinates":[[-58.60049,-34.66608],[-58.60043,-34.66613]]}},{"type":"Feature","properties":{},"geometry":{"type":"LineString","coordinates":[[-58.58426,-34.6796],[-58.58437,-34.67956],[-58.58456,-34.67946],[-58.58473,-34.67933],[-58.58552,-34.67867]]}},{"type":"Feature","properties":{},"geometry":{"type":"LineString","coordinates":[[-58.5474,-34.69552],[-58.54641,-34.69626],[-58.54567,-34.69681],[-58.54448,-34.69774],[-58.54293,-34.69893],[-58.54283,-34.69901],[-58.54275,-34.69909],[-58.54261,-34.69927]]}},{"type":"Feature","properties":{},"geometry":{"type":"LineString","coordinates":[[-58.52934,-34.70907],[-58.52943,-34.709],[-58.53179,-34.70721]]}},{"type":"Feature","properties":{},"geometry":{"type":"LineString","coordinates":[[-58.55202,-34.69187],[-58.55366,-34.69067]]}},{"type":"Feature","properties":{},"geometry":{"type":"LineString","coordinates":[[-58.51975,-34.71666],[-58.51963,-34.71676],[-58.51954,-34.71686],[-58.51943,-34.71698],[-58.51914,-34.71733],[-58.51804,-34.71869]]}},{"type":"Feature","properties":{},"geometry":{"type":"LineString","coordinates":[[-58.49492,-34.74239],[-58.49474,-34.74264],[-58.49447,-34.74299],[-58.4943,-34.7432],[-58.49399,-34.74357],[-58.49342,-34.74429],[-58.49296,-34.74492],[-58.49199,-34.7462],[-58.49179,-34.74647],[-58.49102,-34.74749],[-58.48953,-34.74947],[-58.48896,-34.75024],[-58.48848,-34.75087],[-58.48741,-34.7523],[-58.48704,-34.75279],[-58.48656,-34.75342],[-58.48607,-34.75407],[-58.48558,-34.75471],[-58.4851,-34.75535],[-58.48471,-34.75587],[-58.48447,-34.75619],[-58.48382,-34.75705],[-58.48316,-34.75791],[-58.48272,-34.75854],[-58.48221,-34.75918],[-58.48172,-34.75983],[-58.48125,-34.76044]]}},{"type":"Feature","properties":{},"geometry":{"type":"LineString","coordinates":[[-58.59978,-34.66542],[-58.59982,-34.66536],[-58.59988,-34.6653],[-58.60094,-34.66441],[-58.60104,-34.66433],[-58.60234,-34.66325],[-58.60244,-34.66317],[-58.60372,-34.66208],[-58.60382,-34.66201]]}},{"type":"Feature","properties":{},"geometry":{"type":"LineString","coordinates":[[-58.60751,-34.66031],[-58.60742,-34.66027],[-58.60667,-34.65963]]}},{"type":"Feature","properties":{},"geometry":{"type":"LineString","coordinates":[[-58.6187,-34.66037],[-58.61978,-34.66038],[-58.61991,-34.66038],[-58.62137,-34.6604],[-58.62149,-34.6604]]}},{"type":"Feature","properties":{},"geometry":{"type":"LineString","coordinates":[[-58.52735,-34.71059],[-58.52869,-34.70956],[-58.52934,-34.70907]]}},{"type":"Feature","properties":{},"geometry":{"type":"LineString","coordinates":[[-58.52311,-34.71398],[-58.52272,-34.71434]]}},{"type":"Feature","properties":{},"geometry":{"type":"LineString","coordinates":[[-58.52741,-34.71065],[-58.52311,-34.71398]]}},{"type":"Feature","properties":{},"geometry":{"type":"LineString","coordinates":[[-58.52303,-34.71392],[-58.52735,-34.71059]]}},{"type":"Feature","properties":{},"geometry":{"type":"LineString","coordinates":[[-58.49789,-34.73838],[-58.49753,-34.73883]]}},{"type":"Feature","properties":{},"geometry":{"type":"LineString","coordinates":[[-58.63072,-34.65317],[-58.63087,-34.65375]]}},{"type":"Feature","properties":{},"geometry":{"type":"LineString","coordinates":[[-58.62971,-34.65235],[-58.62978,-34.65246],[-58.62984,-34.65258],[-58.62987,-34.65264],[-58.6299,-34.65266],[-58.62993,-34.6527],[-58.62997,-34.65272],[-58.63016,-34.65281],[-58.63022,-34.65284],[-58.63043,-34.653]]}},{"type":"Feature","properties":{},"geometry":{"type":"LineString","coordinates":[[-58.46066,-34.77627],[-58.46098,-34.77601],[-58.46106,-34.77595],[-58.46155,-34.77559],[-58.46173,-34.77547],[-58.46193,-34.77534],[-58.46232,-34.7751],[-58.46304,-34.77472],[-58.46362,-34.77446],[-58.46428,-34.7742],[-58.46538,-34.77382],[-58.46699,-34.77324]]}},{"type":"Feature","properties":{},"geometry":{"type":"LineString","coordinates":[[-58.59208,-34.67323],[-58.59344,-34.67211],[-58.59357,-34.672]]}},{"type":"Feature","properties":{},"geometry":{"type":"LineString","coordinates":[[-58.59929,-34.66741],[-58.59831,-34.66821],[-58.59806,-34.66842],[-58.59797,-34.66849],[-58.5973,-34.66904],[-58.59665,-34.66958]]}},{"type":"Feature","properties":{},"geometry":{"type":"LineString","coordinates":[[-58.60751,-34.66031],[-58.60774,-34.66026],[-58.60982,-34.66029],[-58.61206,-34.6603],[-58.61215,-34.6603],[-58.61238,-34.66031]]}},{"type":"Feature","properties":{},"geometry":{"type":"LineString","coordinates":[[-58.61535,-34.66033],[-58.6155,-34.66033],[-58.61651,-34.66034],[-58.61767,-34.66035]]}},{"type":"Feature","properties":{},"geometry":{"type":"LineString","coordinates":[[-58.45854,-34.77886],[-58.45916,-34.77794],[-58.45943,-34.77759],[-58.46,-34.77691]]}},{"type":"Feature","properties":{},"geometry":{"type":"LineString","coordinates":[[-58.62954,-34.65184],[-58.62958,-34.652],[-58.62965,-34.65218]]}},{"type":"Feature","properties":{},"geometry":{"type":"LineString","coordinates":[[-58.50685,-34.72693],[-58.50789,-34.72586],[-58.50819,-34.72552],[-58.50852,-34.72519]]}},{"type":"Feature","properties":{},"geometry":{"type":"LineString","coordinates":[[-58.50673,-34.72745],[-58.50636,-34.72771],[-58.50611,-34.72792],[-58.50559,-34.72839],[-58.50526,-34.72872],[-58.50489,-34.72912],[-58.50458,-34.7295],[-58.50414,-34.73015],[-58.50404,-34.73028],[-58.50348,-34.73103],[-58.50298,-34.73165],[-58.50261,-34.73215],[-58.5018,-34.73322],[-58.50143,-34.73371],[-58.50052,-34.73497],[-58.50016,-34.73545],[-58.5001,-34.73554],[-58.49994,-34.73573],[-58.49987,-34.73583],[-58.49985,-34.73586],[-58.49973,-34.73602],[-58.49899,-34.73696],[-58.49789,-34.73838]]}},{"type":"Feature","properties":{},"geometry":{"type":"LineString","coordinates":[[-58.50716,-34.72711],[-58.50673,-34.72745]]}},{"type":"Feature","properties":{},"geometry":{"type":"LineString","coordinates":[[-58.50649,-34.72729],[-58.50665,-34.72712],[-58.50685,-34.72693]]}},{"type":"Feature","properties":{},"geometry":{"type":"LineString","coordinates":[[-58.62755,-34.63653],[-58.62709,-34.63727],[-58.62679,-34.63778],[-58.62675,-34.63785],[-58.62671,-34.6379],[-58.62635,-34.6385],[-58.62627,-34.63864],[-58.62583,-34.63941],[-58.62577,-34.63951],[-58.62571,-34.6396]]}},{"type":"Feature","properties":{},"geometry":{"type":"LineString","coordinates":[[-58.62537,-34.66054],[-58.62526,-34.66054],[-58.62502,-34.66054],[-58.62453,-34.66054]]}},{"type":"Feature","properties":{},"geometry":{"type":"LineString","coordinates":[[-58.63042,-34.63011],[-58.63011,-34.63097],[-58.63005,-34.63113]]}},{"type":"Feature","properties":{},"geometry":{"type":"LineString","coordinates":[[-58.63043,-34.653],[-58.63072,-34.65317]]}},{"type":"Feature","properties":{},"geometry":{"type":"LineString","coordinates":[[-58.62993,-34.6547],[-58.62991,-34.65378]]}},{"type":"Feature","properties":{},"geometry":{"type":"LineString","coordinates":[[-58.6299,-34.65295],[-58.62988,-34.65288],[-58.62986,-34.65282]]}},{"type":"Feature","properties":{},"geometry":{"type":"LineString","coordinates":[[-58.62991,-34.65378],[-58.6299,-34.65295]]}},{"type":"Feature","properties":{},"geometry":{"type":"LineString","coordinates":[[-58.62986,-34.65282],[-58.62974,-34.65254],[-58.62972,-34.65247],[-58.62971,-34.65235]]}},{"type":"Feature","properties":{},"geometry":{"type":"LineString","coordinates":[[-58.63005,-34.63113],[-58.63002,-34.63128],[-58.63,-34.63135],[-58.62994,-34.63149],[-58.6297,-34.63206],[-58.62914,-34.63333]]}},{"type":"Feature","properties":{},"geometry":{"type":"LineString","coordinates":[[-58.63405,-34.61808],[-58.63403,-34.61831],[-58.63401,-34.61846],[-58.63397,-34.61876],[-58.63394,-34.61893],[-58.63387,-34.61966],[-58.63386,-34.61979],[-58.63384,-34.61997],[-58.6338,-34.62035],[-58.63378,-34.62049],[-58.63376,-34.62063],[-58.63373,-34.62077]]}},{"type":"Feature","properties":{},"geometry":{"type":"LineString","coordinates":[[-58.58769,-34.677],[-58.58708,-34.6775],[-58.58499,-34.67924],[-58.58471,-34.67946],[-58.58458,-34.67954],[-58.58441,-34.67962]]}},{"type":"Feature","properties":{},"geometry":{"type":"LineString","coordinates":[[-58.57289,-34.68232],[-58.57197,-34.68253]]}},{"type":"Feature","properties":{},"geometry":{"type":"LineString","coordinates":[[-58.45731,-34.78107],[-58.45655,-34.78219]]}},{"type":"Feature","properties":{},"geometry":{"type":"LineString","coordinates":[[-58.46,-34.77691],[-58.46066,-34.77627]]}},{"type":"Feature","properties":{},"geometry":{"type":"LineString","coordinates":[[-58.46017,-34.77701],[-58.45961,-34.77766],[-58.45943,-34.77791],[-58.45926,-34.77816],[-58.45731,-34.78107]]}},{"type":"Feature","properties":{},"geometry":{"type":"LineString","coordinates":[[-58.45711,-34.78099],[-58.45854,-34.77886]]}},{"type":"Feature","properties":{},"geometry":{"type":"LineString","coordinates":[[-58.4613,-34.77599],[-58.46082,-34.77638],[-58.46048,-34.77669],[-58.46025,-34.77693],[-58.46017,-34.77701]]}},{"type":"Feature","properties":{},"geometry":{"type":"LineString","coordinates":[[-58.56904,-34.68307],[-58.57114,-34.6826]]}},{"type":"Feature","properties":{},"geometry":{"type":"LineString","coordinates":[[-58.55366,-34.69067],[-58.55465,-34.68992],[-58.55472,-34.68987]]}},{"type":"Feature","properties":{},"geometry":{"type":"LineString","coordinates":[[-58.61767,-34.66035],[-58.6187,-34.66037]]}},{"type":"Feature","properties":{},"geometry":{"type":"LineString","coordinates":[[-58.55379,-34.69069],[-58.5521,-34.69195]]}},{"type":"Feature","properties":{},"geometry":{"type":"LineString","coordinates":[[-58.56875,-34.68325],[-58.56695,-34.68365],[-58.56675,-34.68369]]}},{"type":"Feature","properties":{},"geometry":{"type":"LineString","coordinates":[[-58.61249,-34.6604],[-58.61206,-34.6604],[-58.60997,-34.66039],[-58.60973,-34.66038],[-58.60868,-34.66038],[-58.60769,-34.66036],[-58.60751,-34.66031]]}},{"type":"Feature","properties":{},"geometry":{"type":"LineString","coordinates":[[-58.63224,-34.6598],[-58.63092,-34.66014],[-58.63003,-34.66036]]}},{"type":"Feature","properties":{},"geometry":{"type":"LineString","coordinates":[[-58.62285,-34.66041],[-58.62422,-34.66042],[-58.62436,-34.66042],[-58.62526,-34.66043],[-58.62532,-34.66043],[-58.62548,-34.66043]]}},{"type":"Feature","properties":{},"geometry":{"type":"LineString","coordinates":[[-58.62285,-34.66051],[-58.6215,-34.6605],[-58.61992,-34.66049],[-58.6187,-34.66048]]}},{"type":"Feature","properties":{},"geometry":{"type":"LineString","coordinates":[[-58.62774,-34.66047],[-58.62874,-34.66048],[-58.62882,-34.66048],[-58.62888,-34.66048],[-58.62902,-34.66047],[-58.62918,-34.66046],[-58.62934,-34.66044],[-58.62951,-34.66041],[-58.63003,-34.66028],[-58.6309,-34.66005],[-58.63165,-34.65987],[-58.63224,-34.65972]]}},{"type":"Feature","properties":{},"geometry":{"type":"LineString","coordinates":[[-58.48115,-34.76038],[-58.48179,-34.75953],[-58.48224,-34.75893],[-58.48243,-34.75868],[-58.48304,-34.75784],[-58.48369,-34.75698],[-58.48434,-34.75612],[-58.48496,-34.75529],[-58.48546,-34.75465],[-58.48594,-34.75401],[-58.48635,-34.75343],[-58.48643,-34.75332],[-58.48794,-34.75137],[-58.48883,-34.75018],[-58.48933,-34.74951],[-58.48977,-34.74892],[-58.48986,-34.74881],[-58.49037,-34.74811],[-58.49087,-34.74741],[-58.49184,-34.74613],[-58.49279,-34.74486],[-58.49323,-34.74427],[-58.49357,-34.74381],[-58.49459,-34.74242],[-58.49469,-34.7423]]}},{"type":"Feature","properties":{},"geometry":{"type":"LineString","coordinates":[[-58.46894,-34.77268],[-58.46862,-34.7728],[-58.46724,-34.77325]]}},{"type":"Feature","properties":{},"geometry":{"type":"LineString","coordinates":[[-58.63115,-34.62801],[-58.63113,-34.62807],[-58.63107,-34.62824],[-58.63105,-34.62831],[-58.63076,-34.62914]]}},{"type":"Feature","properties":{},"geometry":{"type":"LineString","coordinates":[[-58.62942,-34.63228],[-58.62985,-34.6313],[-58.62994,-34.63115]]}},{"type":"Feature","properties":{},"geometry":{"type":"LineString","coordinates":[[-58.51135,-34.725],[-58.51088,-34.72524],[-58.51041,-34.72545],[-58.5093,-34.72588]]}},{"type":"Feature","properties":{},"geometry":{"type":"LineString","coordinates":[[-58.5093,-34.72588],[-58.50874,-34.72611],[-58.50837,-34.72629],[-58.50796,-34.72653],[-58.50762,-34.72675],[-58.50716,-34.72711]]}},{"type":"Feature","properties":{},"geometry":{"type":"LineString","coordinates":[[-58.50852,-34.72519],[-58.50898,-34.7248],[-58.50944,-34.72438],[-58.50984,-34.72408],[-58.51019,-34.72381],[-58.5111,-34.72314],[-58.51168,-34.72271]]}},{"type":"Feature","properties":{},"geometry":{"type":"LineString","coordinates":[[-58.56665,-34.6836],[-58.56904,-34.68307]]}},{"type":"Feature","properties":{},"geometry":{"type":"LineString","coordinates":[[-58.56675,-34.68369],[-58.56497,-34.68411]]}},{"type":"Feature","properties":{},"geometry":{"type":"LineString","coordinates":[[-58.52867,-34.70975],[-58.5281,-34.71016],[-58.52741,-34.71065]]}},{"type":"Feature","properties":{},"geometry":{"type":"LineString","coordinates":[[-58.53141,-34.70767],[-58.52953,-34.7091],[-58.52879,-34.70966]]}},{"type":"Feature","properties":{},"geometry":{"type":"LineString","coordinates":[[-58.53179,-34.70721],[-58.53234,-34.70678],[-58.53305,-34.70624],[-58.53377,-34.7057],[-58.53419,-34.70538],[-58.53559,-34.70433],[-58.53729,-34.70304],[-58.53822,-34.70234],[-58.53997,-34.70101],[-58.5402,-34.70084],[-58.54036,-34.7007],[-58.54049,-34.70058],[-58.54062,-34.70044]]}},{"type":"Feature","properties":{},"geometry":{"type":"LineString","coordinates":[[-58.57765,-34.68121],[-58.57733,-34.68128],[-58.57669,-34.68143],[-58.57495,-34.68182]]}},{"type":"Feature","properties":{},"geometry":{"type":"LineString","coordinates":[[-58.57754,-34.68112],[-58.57962,-34.68066],[-58.58059,-34.68044],[-58.58149,-34.68023]]}},{"type":"Feature","properties":{},"geometry":{"type":"LineString","coordinates":[[-58.49469,-34.7423],[-58.49487,-34.74211],[-58.49496,-34.74202],[-58.49519,-34.74172],[-58.49547,-34.74133],[-58.49573,-34.74095],[-58.49595,-34.74066],[-58.49622,-34.7403],[-58.49638,-34.7401],[-58.49657,-34.73984],[-58.4967,-34.73969],[-58.49698,-34.73937],[-58.49705,-34.73928],[-58.4972,-34.73907],[-58.49735,-34.73889],[-58.49744,-34.73879]]}},{"type":"Feature","properties":{},"geometry":{"type":"LineString","coordinates":[[-58.57197,-34.68253],[-58.57006,-34.68296],[-58.56887,-34.68323],[-58.56875,-34.68325]]}},{"type":"Feature","properties":{},"geometry":{"type":"LineString","coordinates":[[-58.5838,-34.67981],[-58.58164,-34.68031]]}},{"type":"Feature","properties":{},"geometry":{"type":"LineString","coordinates":[[-58.47841,-34.76424],[-58.47828,-34.76418]]}},{"type":"Feature","properties":{},"geometry":{"type":"LineString","coordinates":[[-58.4851,-34.75535],[-58.48496,-34.75529]]}},{"type":"Feature","properties":{},"geometry":{"type":"LineString","coordinates":[[-58.49102,-34.74749],[-58.49087,-34.74741]]}},{"type":"Feature","properties":{},"geometry":{"type":"LineString","coordinates":[[-58.48896,-34.75024],[-58.48883,-34.75018]]}},{"type":"Feature","properties":{},"geometry":{"type":"LineString","coordinates":[[-58.63241,-34.6245],[-58.63237,-34.62465],[-58.6322,-34.62511],[-58.63215,-34.62524],[-58.6321,-34.62537]]}},{"type":"Feature","properties":{},"geometry":{"type":"LineString","coordinates":[[-58.63365,-34.62101],[-58.63341,-34.62169],[-58.63338,-34.62177]]}},{"type":"Feature","properties":{},"geometry":{"type":"LineString","coordinates":[[-58.57183,-34.68246],[-58.57234,-34.68231]]}},{"type":"Feature","properties":{},"geometry":{"type":"LineString","coordinates":[[-58.45062,-34.79037],[-58.45029,-34.79078],[-58.44963,-34.79165],[-58.44854,-34.79307],[-58.44835,-34.7933],[-58.44813,-34.79358],[-58.44787,-34.79388]]}},{"type":"Feature","properties":{},"geometry":{"type":"LineString","coordinates":[[-58.55815,-34.68725],[-58.55984,-34.68599]]}},{"type":"Feature","properties":{},"geometry":{"type":"LineString","coordinates":[[-58.56114,-34.68524],[-58.56066,-34.68551],[-58.56041,-34.68568],[-58.56016,-34.68585],[-58.55991,-34.68603]]}},{"type":"Feature","properties":{},"geometry":{"type":"LineString","coordinates":[[-58.55984,-34.68599],[-58.56017,-34.68575],[-58.56055,-34.68549],[-58.56106,-34.68519]]}},{"type":"Feature","properties":{},"geometry":{"type":"LineString","coordinates":[[-58.55991,-34.68603],[-58.55822,-34.68731]]}},{"type":"Feature","properties":{},"geometry":{"type":"LineString","coordinates":[[-58.5492,-34.69402],[-58.55202,-34.69187]]}},{"type":"Feature","properties":{},"geometry":{"type":"LineString","coordinates":[[-58.54235,-34.69919],[-58.54271,-34.69895],[-58.54402,-34.69795],[-58.54636,-34.69618]]}},{"type":"Feature","properties":{},"geometry":{"type":"LineString","coordinates":[[-58.54732,-34.69544],[-58.54845,-34.69458],[-58.54859,-34.69448]]}},{"type":"Feature","properties":{},"geometry":{"type":"LineString","coordinates":[[-58.51168,-34.72271],[-58.51275,-34.7219],[-58.51437,-34.7207],[-58.51506,-34.72017]]}},{"type":"Feature","properties":{},"geometry":{"type":"LineString","coordinates":[[-58.54261,-34.69927],[-58.54245,-34.69949],[-58.5424,-34.69959],[-58.54235,-34.69969],[-58.54226,-34.69982]]}},{"type":"Feature","properties":{},"geometry":{"type":"LineString","coordinates":[[-58.55582,-34.68899],[-58.55597,-34.68887],[-58.5565,-34.68846],[-58.55815,-34.68725]]}},{"type":"Feature","properties":{},"geometry":{"type":"LineString","coordinates":[[-58.55472,-34.68987],[-58.55575,-34.68904],[-58.55582,-34.68899]]}},{"type":"Feature","properties":{},"geometry":{"type":"LineString","coordinates":[[-58.55591,-34.68907],[-58.5549,-34.68983],[-58.55478,-34.68992]]}},{"type":"Feature","properties":{},"geometry":{"type":"LineString","coordinates":[[-58.55478,-34.68992],[-58.55379,-34.69069]]}},{"type":"Feature","properties":{},"geometry":{"type":"LineString","coordinates":[[-58.58149,-34.68023],[-58.58366,-34.67975],[-58.58378,-34.67972]]}},{"type":"Feature","properties":{},"geometry":{"type":"LineString","coordinates":[[-58.63179,-34.62626],[-58.63176,-34.62635],[-58.63145,-34.62726]]}},{"type":"Feature","properties":{},"geometry":{"type":"LineString","coordinates":[[-58.6321,-34.62537],[-58.63204,-34.62554],[-58.63189,-34.62595],[-58.63187,-34.62602],[-58.63179,-34.62626]]}},{"type":"Feature","properties":{},"geometry":{"type":"LineString","coordinates":[[-58.60751,-34.66031],[-58.60737,-34.66043],[-58.60663,-34.66104],[-58.60605,-34.66152]]}},{"type":"Feature","properties":{},"geometry":{"type":"LineString","coordinates":[[-58.62662,-34.66055],[-58.62569,-34.66055],[-58.62557,-34.66054],[-58.62537,-34.66054]]}},{"type":"Feature","properties":{},"geometry":{"type":"LineString","coordinates":[[-58.62453,-34.66054],[-58.62285,-34.66051]]}},{"type":"Feature","properties":{},"geometry":{"type":"LineString","coordinates":[[-58.57495,-34.68182],[-58.57441,-34.68195],[-58.57361,-34.68214],[-58.57308,-34.68227]]}},{"type":"Feature","properties":{},"geometry":{"type":"LineString","coordinates":[[-58.59256,-34.67297],[-58.59229,-34.6732],[-58.59217,-34.6733]]}},{"type":"Feature","properties":{},"geometry":{"type":"LineString","coordinates":[[-58.5521,-34.69195],[-58.54942,-34.69399],[-58.54928,-34.69409]]}},{"type":"Feature","properties":{},"geometry":{"type":"LineString","coordinates":[[-58.55607,-34.68895],[-58.55591,-34.68907]]}},{"type":"Feature","properties":{},"geometry":{"type":"LineString","coordinates":[[-58.51804,-34.71869],[-58.5172,-34.71972],[-58.5169,-34.72014]]}},{"type":"Feature","properties":{},"geometry":{"type":"LineString","coordinates":[[-58.49753,-34.73883],[-58.49738,-34.73903],[-58.49711,-34.73942],[-58.49695,-34.73966],[-58.49645,-34.74034],[-58.49628,-34.74056],[-58.49598,-34.74096],[-58.4957,-34.74128],[-58.49561,-34.74139]]}},{"type":"Feature","properties":{},"geometry":{"type":"LineString","coordinates":[[-58.62695,-34.64586],[-58.62707,-34.64603]]}},{"type":"Feature","properties":{},"geometry":{"type":"LineString","coordinates":[[-58.4562,-34.78235],[-58.45708,-34.78103],[-58.45711,-34.78099]]}},{"type":"Feature","properties":{},"geometry":{"type":"LineString","coordinates":[[-58.45487,-34.78463],[-58.45474,-34.78483],[-58.4545,-34.78517],[-58.45425,-34.78555],[-58.45394,-34.78596],[-58.45377,-34.78621],[-58.45357,-34.78647],[-58.4533,-34.7868],[-58.45317,-34.78696],[-58.45168,-34.78895]]}},{"type":"Feature","properties":{},"geometry":{"type":"LineString","coordinates":[[-58.60521,-34.66085],[-58.60579,-34.66038],[-58.6066,-34.65973],[-58.60667,-34.65963]]}},{"type":"Feature","properties":{},"geometry":{"type":"LineString","coordinates":[[-58.52879,-34.70966],[-58.52867,-34.70975]]}},{"type":"Feature","properties":{},"geometry":{"type":"LineString","coordinates":[[-58.54089,-34.70011],[-58.54098,-34.70002],[-58.54116,-34.69986],[-58.54123,-34.69981],[-58.54137,-34.69972]]}},{"type":"Feature","properties":{},"geometry":{"type":"LineString","coordinates":[[-58.53235,-34.70697],[-58.53206,-34.70719],[-58.5319,-34.7073],[-58.53141,-34.70767]]}},{"type":"Feature","properties":{},"geometry":{"type":"LineString","coordinates":[[-58.51582,-34.7214],[-58.51547,-34.7218]]}},{"type":"Feature","properties":{},"geometry":{"type":"LineString","coordinates":[[-58.51506,-34.72017],[-58.51523,-34.72004],[-58.51537,-34.71993],[-58.51566,-34.71971],[-58.51581,-34.71962]]}},{"type":"Feature","properties":{},"geometry":{"type":"LineString","coordinates":[[-58.51666,-34.72044],[-58.51622,-34.72095]]}},{"type":"Feature","properties":{},"geometry":{"type":"LineString","coordinates":[[-58.51622,-34.72095],[-58.51611,-34.72107],[-58.51599,-34.7212],[-58.51582,-34.7214]]}},{"type":"Feature","properties":{},"geometry":{"type":"LineString","coordinates":[[-58.5169,-34.72014],[-58.51676,-34.72031]]}},{"type":"Feature","properties":{},"geometry":{"type":"LineString","coordinates":[[-58.45156,-34.78886],[-58.45237,-34.78778],[-58.45298,-34.78696],[-58.45303,-34.7869],[-58.45389,-34.78575],[-58.4544,-34.78505],[-58.45524,-34.78376],[-58.45539,-34.78352],[-58.45581,-34.78293],[-58.45583,-34.78291],[-58.4562,-34.78235]]}},{"type":"Feature","properties":{},"geometry":{"type":"LineString","coordinates":[[-58.62664,-34.64533],[-58.62682,-34.64563],[-58.62695,-34.64586]]}},{"type":"Feature","properties":{},"geometry":{"type":"LineString","coordinates":[[-58.62608,-34.64447],[-58.62664,-34.64533]]}},{"type":"Feature","properties":{},"geometry":{"type":"LineString","coordinates":[[-58.54219,-34.69993],[-58.54206,-34.70006],[-58.54192,-34.70017]]}},{"type":"Feature","properties":{},"geometry":{"type":"LineString","coordinates":[[-58.51357,-34.7235],[-58.51213,-34.72451],[-58.51135,-34.725]]}},{"type":"Feature","properties":{},"geometry":{"type":"LineString","coordinates":[[-58.62548,-34.66043],[-58.62663,-34.66045]]}},{"type":"Feature","properties":{},"geometry":{"type":"LineString","coordinates":[[-58.62149,-34.6604],[-58.62264,-34.6604],[-58.62285,-34.66041]]}},{"type":"Feature","properties":{},"geometry":{"type":"LineString","coordinates":[[-58.60574,-34.66177],[-58.60507,-34.66232],[-58.60491,-34.66246]]}},{"type":"Feature","properties":{},"geometry":{"type":"LineString","coordinates":[[-58.60382,-34.66201],[-58.60515,-34.66091],[-58.60521,-34.66085]]}},{"type":"Feature","properties":{},"geometry":{"type":"LineString","coordinates":[[-58.54062,-34.70044],[-58.54077,-34.70027],[-58.54084,-34.70019]]}},{"type":"Feature","properties":{},"geometry":{"type":"LineString","coordinates":[[-58.45655,-34.78219],[-58.456,-34.78299],[-58.45599,-34.783]]}},{"type":"Feature","properties":{},"geometry":{"type":"LineString","coordinates":[[-58.4462,-34.79547],[-58.44755,-34.79401],[-58.448,-34.79351],[-58.4482,-34.79326],[-58.44862,-34.79276],[-58.44946,-34.79168],[-58.45028,-34.79059],[-58.45045,-34.79036],[-58.4508,-34.78989],[-58.45091,-34.78975]]}},{"type":"Feature","properties":{},"geometry":{"type":"LineString","coordinates":[[-58.5992,-34.66728],[-58.59938,-34.66711],[-58.59944,-34.66703],[-58.59948,-34.66696],[-58.59952,-34.66686],[-58.59955,-34.66677],[-58.59965,-34.66603],[-58.59974,-34.66551]]}},{"type":"Feature","properties":{},"geometry":{"type":"LineString","coordinates":[[-58.59372,-34.672],[-58.59256,-34.67297]]}},{"type":"Feature","properties":{},"geometry":{"type":"LineString","coordinates":[[-58.62813,-34.63557],[-58.62766,-34.63635],[-58.62755,-34.63653]]}},{"type":"Feature","properties":{},"geometry":{"type":"LineString","coordinates":[[-58.62879,-34.63416],[-58.62876,-34.63423],[-58.62872,-34.63432],[-58.62866,-34.63446],[-58.62845,-34.63495],[-58.62839,-34.63508],[-58.62834,-34.63519],[-58.62825,-34.63537],[-58.62823,-34.6354],[-58.6282,-34.63545],[-58.62813,-34.63557]]}},{"type":"Feature","properties":{},"geometry":{"type":"LineString","coordinates":[[-58.62779,-34.63586],[-58.62796,-34.63559],[-58.6281,-34.63535],[-58.62824,-34.63508],[-58.62833,-34.63488],[-58.62855,-34.63434],[-58.62864,-34.63412]]}},{"type":"Feature","properties":{},"geometry":{"type":"LineString","coordinates":[[-58.60043,-34.66613],[-58.60011,-34.66663],[-58.60006,-34.66669],[-58.59993,-34.66686]]}},{"type":"Feature","properties":{},"geometry":{"type":"LineString","coordinates":[[-58.45168,-34.78895],[-58.45115,-34.78967],[-58.45103,-34.78983]]}},{"type":"Feature","properties":{},"geometry":{"type":"LineString","coordinates":[[-58.45103,-34.78983],[-58.45062,-34.79037]]}},{"type":"Feature","properties":{},"geometry":{"type":"LineString","coordinates":[[-58.63357,-34.62101],[-58.63361,-34.62085],[-58.63363,-34.62079],[-58.63365,-34.62067]]}},{"type":"Feature","properties":{},"geometry":{"type":"LineString","coordinates":[[-58.63202,-34.62535],[-58.63207,-34.62522],[-58.63214,-34.62503],[-58.63221,-34.62484],[-58.63228,-34.62464],[-58.63233,-34.62452]]}},{"type":"Feature","properties":{},"geometry":{"type":"LineString","coordinates":[[-58.63178,-34.62602],[-58.63185,-34.62581],[-58.63186,-34.62578],[-58.63195,-34.62554],[-58.63196,-34.62552],[-58.63202,-34.62535]]}},{"type":"Feature","properties":{},"geometry":{"type":"LineString","coordinates":[[-58.6317,-34.62624],[-58.63178,-34.62602]]}},{"type":"Feature","properties":{},"geometry":{"type":"LineString","coordinates":[[-58.63166,-34.62637],[-58.63167,-34.62633],[-58.6317,-34.62624]]}},{"type":"Feature","properties":{},"geometry":{"type":"LineString","coordinates":[[-58.63108,-34.62799],[-58.63109,-34.62795],[-58.63136,-34.62724],[-58.63166,-34.62637]]}},{"type":"Feature","properties":{},"geometry":{"type":"LineString","coordinates":[[-58.62994,-34.63115],[-58.63025,-34.63033],[-58.63033,-34.63013]]}},{"type":"Feature","properties":{},"geometry":{"type":"LineString","coordinates":[[-58.63373,-34.62077],[-58.63365,-34.62067]]}},{"type":"Feature","properties":{},"geometry":{"type":"LineString","coordinates":[[-58.63365,-34.62067],[-58.63368,-34.62053],[-58.6337,-34.62038],[-58.63391,-34.61844],[-58.63394,-34.6182],[-58.63406,-34.61724],[-58.63409,-34.61692],[-58.63419,-34.61608],[-58.63423,-34.61581]]}},{"type":"Feature","properties":{},"geometry":{"type":"LineString","coordinates":[[-58.63331,-34.62177],[-58.63351,-34.62118],[-58.63355,-34.62105],[-58.63357,-34.62101]]}},{"type":"Feature","properties":{},"geometry":{"type":"LineString","coordinates":[[-58.52272,-34.71434],[-58.52227,-34.71465]]}},{"type":"Feature","properties":{},"geometry":{"type":"LineString","coordinates":[[-58.52259,-34.71423],[-58.52303,-34.71392]]}},{"type":"Feature","properties":{},"geometry":{"type":"LineString","coordinates":[[-58.47348,-34.77003],[-58.47365,-34.76989],[-58.47451,-34.76908],[-58.47505,-34.76843],[-58.4753,-34.76809],[-58.47597,-34.76723],[-58.47667,-34.76632],[-58.47699,-34.76589],[-58.47828,-34.76418],[-58.47858,-34.76376],[-58.47876,-34.76354],[-58.47945,-34.76262],[-58.47994,-34.76198],[-58.48021,-34.76162],[-58.48047,-34.76127],[-58.48088,-34.76075],[-58.48115,-34.76038]]}},{"type":"Feature","properties":{},"geometry":{"type":"LineString","coordinates":[[-58.48125,-34.76044],[-58.48077,-34.76109],[-58.48033,-34.76168],[-58.47956,-34.76271],[-58.47909,-34.76333],[-58.47841,-34.76424],[-58.47714,-34.76591],[-58.47659,-34.76666],[-58.47612,-34.76728],[-58.47544,-34.76817],[-58.47521,-34.76847],[-58.4745,-34.76933]]}},{"type":"Feature","properties":{},"geometry":{"type":"LineString","coordinates":[[-58.51676,-34.72031],[-58.51666,-34.72044]]}},{"type":"Feature","properties":{},"geometry":{"type":"LineString","coordinates":[[-58.51581,-34.71962],[-58.51657,-34.71906],[-58.51742,-34.71839]]}},{"type":"Feature","properties":{},"geometry":{"type":"LineString","coordinates":[[-58.47359,-34.77014],[-58.47332,-34.77036],[-58.47269,-34.77082],[-58.47201,-34.77128],[-58.47163,-34.77149],[-58.47133,-34.77167],[-58.47047,-34.77209],[-58.47,-34.77229],[-58.46948,-34.77248],[-58.46894,-34.77268]]}},{"type":"Feature","properties":{},"geometry":{"type":"LineString","coordinates":[[-58.46892,-34.77258],[-58.46923,-34.77247],[-58.47011,-34.77211],[-58.47066,-34.77186],[-58.47108,-34.77164],[-58.47167,-34.77131],[-58.47215,-34.77102],[-58.4726,-34.77071],[-58.47321,-34.77026],[-58.47348,-34.77003]]}},{"type":"Feature","properties":{},"geometry":{"type":"LineString","coordinates":[[-58.62707,-34.64603],[-58.62788,-34.64715]]}},{"type":"Feature","properties":{},"geometry":{"type":"LineString","coordinates":[[-58.61238,-34.66031],[-58.61425,-34.66032]]}},{"type":"Feature","properties":{},"geometry":{"type":"LineString","coordinates":[[-58.61425,-34.66032],[-58.61513,-34.66033],[-58.61535,-34.66033]]}},{"type":"Feature","properties":{},"geometry":{"type":"LineString","coordinates":[[-58.6187,-34.66048],[-58.61782,-34.66048],[-58.61767,-34.66047],[-58.61638,-34.66045]]}},{"type":"Feature","properties":{},"geometry":{"type":"LineString","coordinates":[[-58.61638,-34.66045],[-58.6155,-34.66044],[-58.61535,-34.66044],[-58.61526,-34.66044],[-58.61425,-34.66043],[-58.61292,-34.6604],[-58.61249,-34.6604]]}},{"type":"Feature","properties":{},"geometry":{"type":"LineString","coordinates":[[-58.59155,-34.67367],[-58.59201,-34.6733],[-58.59208,-34.67323]]}},{"type":"Feature","properties":{},"geometry":{"type":"LineString","coordinates":[[-58.5327,-34.70671],[-58.53238,-34.70695],[-58.53235,-34.70697]]}},{"type":"Feature","properties":{},"geometry":{"type":"LineString","coordinates":[[-58.53301,-34.70648],[-58.53286,-34.70659],[-58.5327,-34.70671]]}},{"type":"Feature","properties":{},"geometry":{"type":"LineString","coordinates":[[-58.60605,-34.66152],[-58.60574,-34.66177]]}},{"type":"Feature","properties":{},"geometry":{"type":"LineString","coordinates":[[-58.59646,-34.66959],[-58.59717,-34.66901],[-58.59822,-34.66813],[-58.59899,-34.66749],[-58.5992,-34.66728]]}},{"type":"Feature","properties":{},"geometry":{"type":"LineString","coordinates":[[-58.59588,-34.67007],[-58.59634,-34.66968],[-58.59646,-34.66959]]}},{"type":"Feature","properties":{},"geometry":{"type":"LineString","coordinates":[[-58.59357,-34.672],[-58.59575,-34.67018],[-58.59588,-34.67007]]}},{"type":"Feature","properties":{},"geometry":{"type":"LineString","coordinates":[[-58.59654,-34.66966],[-58.59583,-34.67024],[-58.59571,-34.67035],[-58.59546,-34.67055],[-58.59485,-34.67107]]}},{"type":"Feature","properties":{},"geometry":{"type":"LineString","coordinates":[[-58.62864,-34.63412],[-58.6287,-34.63397],[-58.62893,-34.63344],[-58.62897,-34.63334]]}},{"type":"Feature","properties":{},"geometry":{"type":"LineString","coordinates":[[-58.63076,-34.62914],[-58.63051,-34.62987],[-58.63042,-34.63011]]}},{"type":"Feature","properties":{},"geometry":{"type":"LineString","coordinates":[[-58.63033,-34.63013],[-58.6307,-34.62909]]}},{"type":"Feature","properties":{},"geometry":{"type":"LineString","coordinates":[[-58.54636,-34.69618],[-58.54723,-34.69551],[-58.54732,-34.69544]]}},{"type":"Feature","properties":{},"geometry":{"type":"LineString","coordinates":[[-58.54859,-34.69448],[-58.54907,-34.69412],[-58.5492,-34.69402]]}},{"type":"Feature","properties":{},"geometry":{"type":"LineString","coordinates":[[-58.62445,-34.64093],[-58.62449,-34.64106]]}},{"type":"Feature","properties":{},"geometry":{"type":"LineString","coordinates":[[-58.62914,-34.63333],[-58.62908,-34.63348],[-58.62879,-34.63416]]}},{"type":"Feature","properties":{},"geometry":{"type":"LineString","coordinates":[[-58.63233,-34.62452],[-58.63263,-34.62365]]}},{"type":"Feature","properties":{},"geometry":{"type":"LineString","coordinates":[[-58.6327,-34.62367],[-58.63241,-34.6245]]}},{"type":"Feature","properties":{},"geometry":{"type":"LineString","coordinates":[[-58.46819,-34.77284],[-58.46892,-34.77258]]}},{"type":"Feature","properties":{},"geometry":{"type":"LineString","coordinates":[[-58.59993,-34.66686],[-58.59947,-34.66725],[-58.59929,-34.66741]]}},{"type":"Feature","properties":{},"geometry":{"type":"LineString","coordinates":[[-58.59485,-34.67107],[-58.59386,-34.67189],[-58.59372,-34.672]]}},{"type":"Feature","properties":{},"geometry":{"type":"LineString","coordinates":[[-58.59665,-34.66958],[-58.59654,-34.66966]]}},{"type":"Feature","properties":{},"geometry":{"type":"LineString","coordinates":[[-58.54867,-34.69455],[-58.54751,-34.69543],[-58.5474,-34.69552]]}},{"type":"Feature","properties":{},"geometry":{"type":"LineString","coordinates":[[-58.54928,-34.69409],[-58.54875,-34.69449],[-58.54867,-34.69455]]}},{"type":"Feature","properties":{},"geometry":{"type":"LineString","coordinates":[[-58.4745,-34.76933],[-58.47359,-34.77014]]}},{"type":"Feature","properties":{},"geometry":{"type":"LineString","coordinates":[[-58.54192,-34.70017],[-58.54175,-34.70029],[-58.54153,-34.70043]]}},{"type":"Feature","properties":{},"geometry":{"type":"LineString","coordinates":[[-58.6307,-34.62909],[-58.63093,-34.62842],[-58.63097,-34.6283],[-58.63097,-34.62829],[-58.631,-34.62822]]}},{"type":"Feature","properties":{},"geometry":{"type":"LineString","coordinates":[[-58.63145,-34.62726],[-58.63118,-34.62793],[-58.63117,-34.62796],[-58.63115,-34.62801]]}},{"type":"Feature","properties":{},"geometry":{"type":"LineString","coordinates":[[-58.63373,-34.62077],[-58.63368,-34.62092],[-58.63365,-34.62101]]}},{"type":"Feature","properties":{},"geometry":{"type":"LineString","coordinates":[[-58.58164,-34.68031],[-58.58067,-34.68053],[-58.58013,-34.68065],[-58.57947,-34.6808],[-58.57765,-34.68121]]}},{"type":"Feature","properties":{},"geometry":{"type":"LineString","coordinates":[[-58.63304,-34.62272],[-58.63285,-34.62325],[-58.6327,-34.62367]]}},{"type":"Feature","properties":{},"geometry":{"type":"LineString","coordinates":[[-58.63263,-34.62365],[-58.63297,-34.62271]]}},{"type":"Feature","properties":{},"geometry":{"type":"LineString","coordinates":[[-58.631,-34.62822],[-58.63108,-34.62799]]}},{"type":"Feature","properties":{},"geometry":{"type":"LineString","coordinates":[[-58.62571,-34.6396],[-58.62516,-34.64048],[-58.6251,-34.64055],[-58.62502,-34.64064],[-58.62488,-34.64076]]}},{"type":"Feature","properties":{},"geometry":{"type":"LineString","coordinates":[[-58.62445,-34.64093],[-58.62486,-34.64061],[-58.62492,-34.64056],[-58.62496,-34.64051],[-58.62499,-34.64046],[-58.62553,-34.63961]]}},{"type":"Feature","properties":{},"geometry":{"type":"LineString","coordinates":[[-58.63297,-34.62271],[-58.63331,-34.62177]]}},{"type":"Feature","properties":{},"geometry":{"type":"LineString","coordinates":[[-58.63338,-34.62177],[-58.63304,-34.62272]]}},{"type":"Feature","properties":{},"geometry":{"type":"LineString","coordinates":[[-58.49522,-34.74192],[-58.49514,-34.74208],[-58.49492,-34.74239]]}},{"type":"Feature","properties":{},"geometry":{"type":"LineString","coordinates":[[-58.49561,-34.74139],[-58.49553,-34.74148],[-58.49535,-34.74176],[-58.49522,-34.74192]]}},{"type":"Feature","properties":{},"geometry":{"type":"LineString","coordinates":[[-58.62775,-34.66057],[-58.62662,-34.66055]]}},{"type":"Feature","properties":{},"geometry":{"type":"LineString","coordinates":[[-58.62663,-34.66045],[-58.62774,-34.66047]]}},{"type":"Feature","properties":{},"geometry":{"type":"LineString","coordinates":[[-58.58378,-34.67972],[-58.58412,-34.67964],[-58.58426,-34.6796]]}},{"type":"Feature","properties":{},"geometry":{"type":"LineString","coordinates":[[-58.62965,-34.65218],[-58.62967,-34.65225]]}},{"type":"Feature","properties":{},"geometry":{"type":"LineString","coordinates":[[-58.62967,-34.65225],[-58.62971,-34.65235]]}},{"type":"Feature","properties":{},"geometry":{"type":"LineString","coordinates":[[-58.56497,-34.68411],[-58.56341,-34.68445]]}},{"type":"Feature","properties":{},"geometry":{"type":"LineString","coordinates":[[-58.56339,-34.68437],[-58.56437,-34.68414]]}},{"type":"Feature","properties":{},"geometry":{"type":"LineString","coordinates":[[-58.58862,-34.67622],[-58.58782,-34.67689],[-58.58769,-34.677]]}},{"type":"Feature","properties":{},"geometry":{"type":"LineString","coordinates":[[-58.59067,-34.6744],[-58.59155,-34.67367]]}},{"type":"Feature","properties":{},"geometry":{"type":"LineString","coordinates":[[-58.58878,-34.67609],[-58.58862,-34.67622]]}},{"type":"Feature","properties":{},"geometry":{"type":"LineString","coordinates":[[-58.59217,-34.6733],[-58.59124,-34.67406],[-58.59022,-34.67489],[-58.58878,-34.67609]]}},{"type":"Feature","properties":{},"geometry":{"type":"LineString","coordinates":[[-58.58846,-34.67624],[-58.58855,-34.67616]]}},{"type":"Feature","properties":{},"geometry":{"type":"LineString","coordinates":[[-58.58552,-34.67867],[-58.58746,-34.67706],[-58.5876,-34.67694]]}},{"type":"Feature","properties":{},"geometry":{"type":"LineString","coordinates":[[-58.62488,-34.64076],[-58.62449,-34.64106]]}},{"type":"Feature","properties":{},"geometry":{"type":"LineString","coordinates":[[-58.58441,-34.67962],[-58.58426,-34.67969]]}},{"type":"Feature","properties":{},"geometry":{"type":"LineString","coordinates":[[-58.57277,-34.68222],[-58.57486,-34.68174]]}},{"type":"Feature","properties":{},"geometry":{"type":"LineString","coordinates":[[-58.57308,-34.68227],[-58.57289,-34.68232]]}},{"type":"Feature","properties":{},"geometry":{"type":"LineString","coordinates":[[-58.5876,-34.67694],[-58.58846,-34.67624]]}},{"type":"Feature","properties":{},"geometry":{"type":"LineString","coordinates":[[-58.59974,-34.66551],[-58.59978,-34.66542]]}},{"type":"Feature","properties":{},"geometry":{"type":"LineString","coordinates":[[-58.45091,-34.78975],[-58.45156,-34.78886]]}},{"type":"Feature","properties":{},"geometry":{"type":"LineString","coordinates":[[-58.45599,-34.783],[-58.45586,-34.78319],[-58.45542,-34.78384],[-58.45487,-34.78463]]}}]}